[Satellite]
VERSION=1.1
NAME=COSMOS 2471 (701K)
NICKNAME=COSMOS 2471 (701K)
TLE1=1 37372U 11009A   18020.66694032 -.00000011  00000-0  00000-0 0  9993
TLE2=2 37372  65.5061  57.2872 0009516 237.6328 204.9427  2.13107658 53683
